{"type": "FeatureCollection", "features": [ {"type": "Feature", "properties": {"norad_id": 33492, "name": "GOSAT (IBUKI)", "group": "resource", "lat": 46.754700189453004, "lon": -75.35432910189317, "alt_km": 664.2853020246457, "timestamp": "2025-12-13T08:49:15.350185+00:00", "meta": {"OBJECT_NAME": "GOSAT (IBUKI)", "OBJECT_ID": "2009-002A", "EPOCH": "2025-12-12T20:45:52.462656", "MEAN_MOTION": 14.6755557, "ECCENTRICITY": 9.347e-05, "INCLINATION": 98.0769, "RA_OF_ASC_NODE": 95.4667, "ARG_OF_PERICENTER": 91.8424, "MEAN_ANOMALY": 268.2888, "EPHEMERIS_TYPE": 0, "CLASSIFICATION_TYPE": "U", "NORAD_CAT_ID": 33492, "ELEMENT_SET_NO": 999, "REV_AT_EPOCH": 90413, "BSTAR": 0.00025626852, "MEAN_MOTION_DOT": 1.406e-05, "MEAN_MOTION_DDOT": 0}, "tle": {"line1": "1 33492U 09002A   25346.86519054  .00001406  00000+0  25627-3 0  9995", "line2": "2 33492  98.0769  95.4667 0000934  91.8424 268.2888 14.67555570904137"}}, "geometry": {"type": "Point", "coordinates": [-75.35432910189317, 46.754700189453004]}}, {"type": "Feature", "properties": {"norad_id": 35681, "name": "DEIMOS-1", "group": "resource", "lat": -46.54700117525612, "lon": -40.28524761752959, "alt_km": 653.7425332311768, "timestamp": "2025-12-13T08:49:15.350197+00:00", "meta": {"OBJECT_NAME": "DEIMOS-1", "OBJECT_ID": "2009-041A", "EPOCH": "2025-12-12T23:39:15.020064", "MEAN_MOTION": 14.74953676, "ECCENTRICITY": 0.00027176, "INCLINATION": 97.7149, "RA_OF_ASC_NODE": 147.5772, "ARG_OF_PERICENTER": 78.7966, "MEAN_ANOMALY": 281.355, "EPHEMERIS_TYPE": 0, "CLASSIFICATION_TYPE": "U", "NORAD_CAT_ID": 35681, "ELEMENT_SET_NO": 999, "REV_AT_EPOCH": 87943, "BSTAR": 0.00018224792, "MEAN_MOTION_DOT": 1.177e-05, "MEAN_MOTION_DDOT": 0}, "tle": {"line1": "1 35681U 09041A   25346.98559051  .00001177  00000+0  18225-3 0  9995", "line2": "2 35681  97.7149 147.5772 0002717  78.7966 281.3550 14.74953676879432"}}, "geometry": {"type": "Point", "coordinates": [-40.28524761752959, -46.54700117525612]}}, {"type": "Feature", "properties": {"norad_id": 35682, "name": "DUBAISAT-1", "group": "resource", "lat": 18.6586769513926, "lon": -59.24781039274048, "alt_km": 652.5890235540346, "timestamp": "2025-12-13T08:49:15.350207+00:00", "meta": {"OBJECT_NAME": "DUBAISAT-1", "OBJECT_ID": "2009-041B", "EPOCH": "2025-12-12T22:19:16.158432", "MEAN_MOTION": 14.74605669, "ECCENTRICITY": 0.00095432, "INCLINATION": 97.9784, "RA_OF_ASC_NODE": 117.6068, "ARG_OF_PERICENTER": 313.9999, "MEAN_ANOMALY": 46.0423, "EPHEMERIS_TYPE": 0, "CLASSIFICATION_TYPE": "U", "NORAD_CAT_ID": 35682, "ELEMENT_SET_NO": 999, "REV_AT_EPOCH": 87764, "BSTAR": 0.00034341756, "MEAN_MOTION_DOT": 2.24e-05, "MEAN_MOTION_DDOT": 0}, "tle": {"line1": "1 35682U 09041B   25346.93004813  .00002240  00000+0  34342-3 0  9992", "line2": "2 35682  97.9784 117.6068 0009543 313.9999  46.0423 14.74605669877642"}}, "geometry": {"type": "Point", "coordinates": [-59.24781039274048, 18.6586769513926]}}, {"type": "Feature", "properties": {"norad_id": 35931, "name": "OCEANSAT-2", "group": "resource", "lat": 10.20698117526746, "lon": 169.39637278098715, "alt_km": 903.5343308501078, "timestamp": "2025-12-13T08:49:15.350218+00:00", "meta": {"OBJECT_NAME": "OCEANSAT-2", "OBJECT_ID": "2009-051A", "EPOCH": "2025-12-12T23:26:10.044960", "MEAN_MOTION": 13.99624602, "ECCENTRICITY": 0.00162096, "INCLINATION": 98.2223, "RA_OF_ASC_NODE": 347.5532, "ARG_OF_PERICENTER": 44.4402, "MEAN_ANOMALY": 315.8062, "EPHEMERIS_TYPE": 0, "CLASSIFICATION_TYPE": "U", "NORAD_CAT_ID": 35931, "ELEMENT_SET_NO": 999, "REV_AT_EPOCH": 85328, "BSTAR": -7.1229804e-05, "MEAN_MOTION_DOT": -1.42e-06, "MEAN_MOTION_DDOT": 0}, "tle": {"line1": "1 35931U 09051A   25346.97650515 -.00000142  00000+0 -71230-4 0  9999", "line2": "2 35931  98.2223 347.5532 0016209  44.4402 315.8062 13.99624602853287"}}, "geometry": {"type": "Point", "coordinates": [169.39637278098715, 10.20698117526746]}}, {"type": "Feature", "properties": {"norad_id": 35946, "name": "WORLDVIEW-2 (WV-2)", "group": "resource", "lat": 16.346490366121905, "lon": 55.93511746102198, "alt_km": 764.3547154464859, "timestamp": "2025-12-13T08:49:15.350229+00:00", "meta": {"OBJECT_NAME": "WORLDVIEW-2 (WV-2)", "OBJECT_ID": "2009-055A", "EPOCH": "2025-12-12T22:43:21.709920", "MEAN_MOTION": 14.37724154, "ECCENTRICITY": 0.0005172, "INCLINATION": 98.4787, "RA_OF_ASC_NODE": 58.0277, "ARG_OF_PERICENTER": 70.0464, "MEAN_ANOMALY": 290.128, "EPHEMERIS_TYPE": 0, "CLASSIFICATION_TYPE": "U", "NORAD_CAT_ID": 35946, "ELEMENT_SET_NO": 999, "REV_AT_EPOCH": 84888, "BSTAR": 0.00010332393, "MEAN_MOTION_DOT": 2.67e-06, "MEAN_MOTION_DDOT": 0}, "tle": {"line1": "1 35946U 09055A   25346.94677905  .00000267  00000+0  10332-3 0  9999", "line2": "2 35946  98.4787  58.0277 0005172  70.0464 290.1280 14.37724154848883"}}, "geometry": {"type": "Point", "coordinates": [55.93511746102198, 16.346490366121905]}}, {"type": "Feature", "properties": {"norad_id": 36036, "name": "SMOS", "group": "resource", "lat": 55.71155538966526, "lon": 159.83240931452045, "alt_km": 753.307264098823, "timestamp": "2025-12-13T08:49:15.350239+00:00", "meta": {"OBJECT_NAME": "SMOS", "OBJECT_ID": "2009-059A", "EPOCH": "2025-12-13T00:13:08.932224", "MEAN_MOTION": 14.39741491, "ECCENTRICITY": 0.00011082, "INCLINATION": 98.438, "RA_OF_ASC_NODE": 172.0535, "ARG_OF_PERICENTER": 83.8778, "MEAN_ANOMALY": 276.2537, "EPHEMERIS_TYPE": 0, "CLASSIFICATION_TYPE": "U", "NORAD_CAT_ID": 36036, "ELEMENT_SET_NO": 999, "REV_AT_EPOCH": 84666, "BSTAR": 0.00019924799, "MEAN_MOTION_DOT": 5.81e-06, "MEAN_MOTION_DDOT": 0}, "tle": {"line1": "1 36036U 09059A   25347.00913116  .00000581  00000+0  19925-3 0  9995", "line2": "2 36036  98.4380 172.0535 0001108  83.8778 276.2537 14.39741491846661"}}, "geometry": {"type": "Point", "coordinates": [159.83240931452045, 55.71155538966526]}}, {"type": "Feature", "properties": {"norad_id": 36110, "name": "YAOGAN-7", "group": "resource", "lat": -32.167440677137975, "lon": -125.78408657323523, "alt_km": 631.6601876681325, "timestamp": "2025-12-13T08:49:15.350249+00:00", "meta": {"OBJECT_NAME": "YAOGAN-7", "OBJECT_ID": "2009-069A", "EPOCH": "2025-12-12T15:05:29.426784", "MEAN_MOTION": 14.77732535, "ECCENTRICITY": 0.00233806, "INCLINATION": 98.03, "RA_OF_ASC_NODE": 228.3862, "ARG_OF_PERICENTER": 281.6698, "MEAN_ANOMALY": 78.1889, "EPHEMERIS_TYPE": 0, "CLASSIFICATION_TYPE": "U", "NORAD_CAT_ID": 36110, "ELEMENT_SET_NO": 999, "REV_AT_EPOCH": 86207, "BSTAR": 0.0001602639, "MEAN_MOTION_DOT": 1.1e-05, "MEAN_MOTION_DDOT": 0}, "tle": {"line1": "1 36110U 09069A   25346.62881281  .00001100  00000+0  16026-3 0  9990", "line2": "2 36110  98.0300 228.3862 0023380 281.6698  78.1889 14.77732535862078"}}, "geometry": {"type": "Point", "coordinates": [-125.78408657323523, -32.167440677137975]}}, {"type": "Feature", "properties": {"norad_id": 36605, "name": "TANDEM-X", "group": "resource", "lat": -52.9223450961846, "lon": 2.7035438613220903, "alt_km": 516.3764377204052, "timestamp": "2025-12-13T08:49:15.350260+00:00", "meta": {"OBJECT_NAME": "TANDEM-X", "OBJECT_ID": "2010-030A", "EPOCH": "2025-12-12T12:30:19.785312", "MEAN_MOTION": 15.19147619, "ECCENTRICITY": 0.00017615, "INCLINATION": 97.4455, "RA_OF_ASC_NODE": 351.9037, "ARG_OF_PERICENTER": 90.78, "MEAN_ANOMALY": 269.3636, "EPHEMERIS_TYPE": 0, "CLASSIFICATION_TYPE": "U", "NORAD_CAT_ID": 36605, "ELEMENT_SET_NO": 999, "REV_AT_EPOCH": 85830, "BSTAR": 0.00012546262, "MEAN_MOTION_DOT": 2.568e-05, "MEAN_MOTION_DDOT": 0}, "tle": {"line1": "1 36605U 10030A   25346.52106233  .00002568  00000+0  12546-3 0  9997", "line2": "2 36605  97.4455 351.9037 0001761  90.7800 269.3636 15.19147619858306"}}, "geometry": {"type": "Point", "coordinates": [2.7035438613220903, -52.9223450961846]}}, {"type": "Feature", "properties": {"norad_id": 36795, "name": "CARTOSAT-2B", "group": "resource", "lat": -74.92636017339487, "lon": -174.15238798655105, "alt_km": 649.8181923459506, "timestamp": "2025-12-13T08:49:15.350270+00:00", "meta": {"OBJECT_NAME": "CARTOSAT-2B", "OBJECT_ID": "2010-035A", "EPOCH": "2025-12-13T01:09:59.732064", "MEAN_MOTION": 14.78726473, "ECCENTRICITY": 0.00130563, "INCLINATION": 97.7853, "RA_OF_ASC_NODE": 36.0686, "ARG_OF_PERICENTER": 75.6783, "MEAN_ANOMALY": 284.5877, "EPHEMERIS_TYPE": 0, "CLASSIFICATION_TYPE": "U", "NORAD_CAT_ID": 36795, "ELEMENT_SET_NO": 999, "REV_AT_EPOCH": 83234, "BSTAR": 0.0002553001, "MEAN_MOTION_DOT": 1.826e-05, "MEAN_MOTION_DDOT": 0}, "tle": {"line1": "1 36795U 10035A   25347.04860801  .00001826  00000+0  25530-3 0  9991", "line2": "2 36795  97.7853  36.0686 0013056  75.6783 284.5877 14.78726473832341"}}, "geometry": {"type": "Point", "coordinates": [-174.15238798655105, -74.92636017339487]}}, {"type": "Feature", "properties": {"norad_id": 36834, "name": "YAOGAN-10", "group": "resource", "lat": -9.55338347688618, "lon": 8.52539358827648, "alt_km": 618.9878107435879, "timestamp": "2025-12-13T08:49:15.350281+00:00", "meta": {"OBJECT_NAME": "YAOGAN-10", "OBJECT_ID": "2010-038A", "EPOCH": "2025-12-13T01:07:45.375744", "MEAN_MOTION": 14.84612546, "ECCENTRICITY": 0.00015338, "INCLINATION": 97.915, "RA_OF_ASC_NODE": 6.8656, "ARG_OF_PERICENTER": 82.1075, "MEAN_ANOMALY": 356.5611, "EPHEMERIS_TYPE": 0, "CLASSIFICATION_TYPE": "U", "NORAD_CAT_ID": 36834, "ELEMENT_SET_NO": 999, "REV_AT_EPOCH": 82958, "BSTAR": 0.00044371101, "MEAN_MOTION_DOT": 3.696e-05, "MEAN_MOTION_DDOT": 0}, "tle": {"line1": "1 36834U 10038A   25347.04705296  .00003696  00000+0  44371-3 0  9995", "line2": "2 36834  97.9150   6.8656 0001533  82.1075 356.5611 14.84612546829583"}}, "geometry": {"type": "Point", "coordinates": [8.52539358827648, -9.55338347688618]}}]}